{"type": "FeatureCollection", "features": [ {"type": "Feature", "properties": {"norad_id": 66956, "name": "HULIANWANG DIGUI-117", "group": "last-30-days", "lat": 65.38762310279266, "lon": -8.040848119586233, "alt_km": 998.858151913335, "timestamp": "2025-12-17T21:39:44.493363+00:00", "meta": {"OBJECT_NAME": "HULIANWANG DIGUI-117", "OBJECT_ID": "2025-287D", "EPOCH": "2025-12-16T06:45:06.569856", "MEAN_MOTION": 13.69018692, "ECCENTRICITY": 0.00077617, "INCLINATION": 86.4974, "RA_OF_ASC_NODE": 344.867, "ARG_OF_PERICENTER": 181.5999, "MEAN_ANOMALY": 178.5137, "EPHEMERIS_TYPE": 0, "CLASSIFICATION_TYPE": "U", "NORAD_CAT_ID": 66956, "ELEMENT_SET_NO": 999, "REV_AT_EPOCH": 101, "BSTAR": 2.3352809e-05, "MEAN_MOTION_DOT": 3.7e-07, "MEAN_MOTION_DDOT": 0}, "tle": {"line1": "1 66956U 25287D   25350.28132604  .00000037  00000+0  23353-4 0  9996", "line2": "2 66956  86.4974 344.8670 0007761 181.5999 178.5137 13.69018692  1016"}}, "geometry": {"type": "Point", "coordinates": [-8.040848119586233, 65.38762310279266]}}, {"type": "Feature", "properties": {"norad_id": 66957, "name": "HULIANWANG DIGUI-118", "group": "last-30-days", "lat": 65.41542470399033, "lon": -8.03022681350929, "alt_km": 1000.1811122230056, "timestamp": "2025-12-17T21:39:44.493372+00:00", "meta": {"OBJECT_NAME": "HULIANWANG DIGUI-118", "OBJECT_ID": "2025-287E", "EPOCH": "2025-12-17T14:19:24.841920", "MEAN_MOTION": 13.68572802, "ECCENTRICITY": 0.00077566, "INCLINATION": 86.4948, "RA_OF_ASC_NODE": 344.3824, "ARG_OF_PERICENTER": 174.8369, "MEAN_ANOMALY": 185.2872, "EPHEMERIS_TYPE": 0, "CLASSIFICATION_TYPE": "U", "NORAD_CAT_ID": 66957, "ELEMENT_SET_NO": 999, "REV_AT_EPOCH": 119, "BSTAR": 0.00015194853, "MEAN_MOTION_DOT": 1.47e-06, "MEAN_MOTION_DDOT": 0}, "tle": {"line1": "1 66957U 25287E   25351.59681530  .00000147  00000+0  15195-3 0  9995", "line2": "2 66957  86.4948 344.3824 0007756 174.8369 185.2872 13.68572802  1191"}}, "geometry": {"type": "Point", "coordinates": [-8.03022681350929, 65.41542470399033]}}, {"type": "Feature", "properties": {"norad_id": 66958, "name": "CZ-6A R/B", "group": "last-30-days", "lat": 2.1686819417575367, "lon": 164.00534733741176, "alt_km": 914.7966749547486, "timestamp": "2025-12-17T21:39:44.493381+00:00", "meta": {"OBJECT_NAME": "CZ-6A R/B", "OBJECT_ID": "2025-287F", "EPOCH": "2025-12-17T13:56:18.684384", "MEAN_MOTION": 13.94920519, "ECCENTRICITY": 0.0107325, "INCLINATION": 86.5059, "RA_OF_ASC_NODE": 344.2602, "ARG_OF_PERICENTER": 87.6051, "MEAN_ANOMALY": 273.7406, "EPHEMERIS_TYPE": 0, "CLASSIFICATION_TYPE": "U", "NORAD_CAT_ID": 66958, "ELEMENT_SET_NO": 999, "REV_AT_EPOCH": 121, "BSTAR": 4.6292174e-05, "MEAN_MOTION_DOT": 8.4e-07, "MEAN_MOTION_DDOT": 0}, "tle": {"line1": "1 66958U 25287F   25351.58077181  .00000084  00000+0  46292-4 0  9999", "line2": "2 66958  86.5059 344.2602 0107325  87.6051 273.7406 13.94920519  1211"}}, "geometry": {"type": "Point", "coordinates": [164.00534733741176, 2.1686819417575367]}}, {"type": "Feature", "properties": {"norad_id": 66959, "name": "STARLINK-35887", "group": "last-30-days", "lat": -42.97802403974282, "lon": 46.24210610868567, "alt_km": 309.58512768133824, "timestamp": "2025-12-17T21:39:44.493391+00:00", "meta": {"OBJECT_NAME": "STARLINK-35887", "OBJECT_ID": "2025-288A", "EPOCH": "2025-12-16T14:00:03.000384", "MEAN_MOTION": 15.91064311, "ECCENTRICITY": 0.00016179, "INCLINATION": 43.0008, "RA_OF_ASC_NODE": 143.7995, "ARG_OF_PERICENTER": 269.3707, "MEAN_ANOMALY": 2.8159, "EPHEMERIS_TYPE": 0, "CLASSIFICATION_TYPE": "U", "NORAD_CAT_ID": 66959, "ELEMENT_SET_NO": 999, "REV_AT_EPOCH": 245, "BSTAR": -0.0037977459, "MEAN_MOTION_DOT": -0.01103717, "MEAN_MOTION_DDOT": 0}, "tle": {"line1": "1 66959U 25288A   25350.58336806 -.01103717  00000+0 -37977-2 0  9990", "line2": "2 66959  43.0008 143.7995 0001617 269.3707   2.8159 15.91064311  2456"}}, "geometry": {"type": "Point", "coordinates": [46.24210610868567, -42.97802403974282]}}, {"type": "Feature", "properties": {"norad_id": 66960, "name": "STARLINK-35879", "group": "last-30-days", "lat": -42.94026865346974, "lon": 48.626923614887275, "alt_km": 309.44525034688195, "timestamp": "2025-12-17T21:39:44.493404+00:00", "meta": {"OBJECT_NAME": "STARLINK-35879", "OBJECT_ID": "2025-288B", "EPOCH": "2025-12-16T14:00:03.000384", "MEAN_MOTION": 15.91117419, "ECCENTRICITY": 0.00016613, "INCLINATION": 43.0008, "RA_OF_ASC_NODE": 143.7955, "ARG_OF_PERICENTER": 270.1089, "MEAN_ANOMALY": 3.6197, "EPHEMERIS_TYPE": 0, "CLASSIFICATION_TYPE": "U", "NORAD_CAT_ID": 66960, "ELEMENT_SET_NO": 999, "REV_AT_EPOCH": 245, "BSTAR": -0.0038106711, "MEAN_MOTION_DOT": -0.0110978, "MEAN_MOTION_DDOT": 0}, "tle": {"line1": "1 66960U 25288B   25350.58336806 -.01109780  00000+0 -38107-2 0  9994", "line2": "2 66960  43.0008 143.7955 0001661 270.1089   3.6197 15.91117419  2455"}}, "geometry": {"type": "Point", "coordinates": [48.626923614887275, -42.94026865346974]}}, {"type": "Feature", "properties": {"norad_id": 66961, "name": "STARLINK-35761", "group": "last-30-days", "lat": -42.84596859755318, "lon": 51.1544451688897, "alt_km": 309.4383101619951, "timestamp": "2025-12-17T21:39:44.493413+00:00", "meta": {"OBJECT_NAME": "STARLINK-35761", "OBJECT_ID": "2025-288C", "EPOCH": "2025-12-16T14:00:03.000384", "MEAN_MOTION": 15.91193502, "ECCENTRICITY": 0.00016481, "INCLINATION": 43.0009, "RA_OF_ASC_NODE": 143.7913, "ARG_OF_PERICENTER": 269.4345, "MEAN_ANOMALY": 5.9922, "EPHEMERIS_TYPE": 0, "CLASSIFICATION_TYPE": "U", "NORAD_CAT_ID": 66961, "ELEMENT_SET_NO": 999, "REV_AT_EPOCH": 245, "BSTAR": -0.0039038489, "MEAN_MOTION_DOT": -0.01286068, "MEAN_MOTION_DDOT": 0.00047494021}, "tle": {"line1": "1 66961U 25288C   25350.58336806 -.01286068  47494-3 -39038-2 0  9996", "line2": "2 66961  43.0009 143.7913 0001648 269.4345   5.9922 15.91193502  2450"}}, "geometry": {"type": "Point", "coordinates": [51.1544451688897, -42.84596859755318]}}, {"type": "Feature", "properties": {"norad_id": 66962, "name": "STARLINK-35874", "group": "last-30-days", "lat": -42.62219544037398, "lon": 54.65417384705759, "alt_km": 309.34659129779175, "timestamp": "2025-12-17T21:39:44.493422+00:00", "meta": {"OBJECT_NAME": "STARLINK-35874", "OBJECT_ID": "2025-288D", "EPOCH": "2025-12-16T14:00:03.000384", "MEAN_MOTION": 15.91258062, "ECCENTRICITY": 0.00016798, "INCLINATION": 43.0009, "RA_OF_ASC_NODE": 143.7852, "ARG_OF_PERICENTER": 265.2732, "MEAN_ANOMALY": 12.5507, "EPHEMERIS_TYPE": 0, "CLASSIFICATION_TYPE": "U", "NORAD_CAT_ID": 66962, "ELEMENT_SET_NO": 999, "REV_AT_EPOCH": 245, "BSTAR": -0.0039550127, "MEAN_MOTION_DOT": -0.01307049, "MEAN_MOTION_DDOT": 0.00048952147}, "tle": {"line1": "1 66962U 25288D   25350.58336806 -.01307049  48952-3 -39550-2 0  9999", "line2": "2 66962  43.0009 143.7852 0001679 265.2732  12.5507 15.91258062  2457"}}, "geometry": {"type": "Point", "coordinates": [54.65417384705759, -42.62219544037398]}}, {"type": "Feature", "properties": {"norad_id": 66963, "name": "STARLINK-36133", "group": "last-30-days", "lat": -42.389539449252574, "lon": 57.212974119492834, "alt_km": 309.33416349177696, "timestamp": "2025-12-17T21:39:44.493431+00:00", "meta": {"OBJECT_NAME": "STARLINK-36133", "OBJECT_ID": "2025-288E", "EPOCH": "2025-12-16T14:00:03.000384", "MEAN_MOTION": 15.913225, "ECCENTRICITY": 0.0001662, "INCLINATION": 43.001, "RA_OF_ASC_NODE": 143.7809, "ARG_OF_PERICENTER": 264.2062, "MEAN_ANOMALY": 15.3668, "EPHEMERIS_TYPE": 0, "CLASSIFICATION_TYPE": "U", "NORAD_CAT_ID": 66963, "ELEMENT_SET_NO": 999, "REV_AT_EPOCH": 245, "BSTAR": -0.0040224604, "MEAN_MOTION_DOT": -0.01333473, "MEAN_MOTION_DDOT": 0.00050810595}, "tle": {"line1": "1 66963U 25288E   25350.58336806 -.01333473  50811-3 -40225-2 0  9998", "line2": "2 66963  43.0010 143.7809 0001662 264.2062  15.3668 15.91322500  2457"}}, "geometry": {"type": "Point", "coordinates": [57.212974119492834, -42.389539449252574]}}, {"type": "Feature", "properties": {"norad_id": 66964, "name": "STARLINK-36104", "group": "last-30-days", "lat": -42.082122061799, "lon": 59.894270763030796, "alt_km": 309.2422730666276, "timestamp": "2025-12-17T21:39:44.493440+00:00", "meta": {"OBJECT_NAME": "STARLINK-36104", "OBJECT_ID": "2025-288F", "EPOCH": "2025-12-16T14:00:03.000384", "MEAN_MOTION": 15.91381929, "ECCENTRICITY": 0.00016875, "INCLINATION": 43.0012, "RA_OF_ASC_NODE": 143.776, "ARG_OF_PERICENTER": 264.1667, "MEAN_ANOMALY": 17.2313, "EPHEMERIS_TYPE": 0, "CLASSIFICATION_TYPE": "U", "NORAD_CAT_ID": 66964, "ELEMENT_SET_NO": 999, "REV_AT_EPOCH": 245, "BSTAR": -0.0040599566, "MEAN_MOTION_DOT": -0.01349864, "MEAN_MOTION_DDOT": 0.00051989801}, "tle": {"line1": "1 66964U 25288F   25350.58336806 -.01349864  51990-3 -40600-2 0  9996", "line2": "2 66964  43.0012 143.7760 0001687 264.1667  17.2313 15.91381929  2451"}}, "geometry": {"type": "Point", "coordinates": [59.894270763030796, -42.082122061799]}}, {"type": "Feature", "properties": {"norad_id": 66965, "name": "STARLINK-36067", "group": "last-30-days", "lat": -41.72789655072708, "lon": 62.444892339426865, "alt_km": 309.2938891267013, "timestamp": "2025-12-17T21:39:44.493451+00:00", "meta": {"OBJECT_NAME": "STARLINK-36067", "OBJECT_ID": "2025-288G", "EPOCH": "2025-12-16T14:00:03.000384", "MEAN_MOTION": 15.91459647, "ECCENTRICITY": 0.00016181, "INCLINATION": 43.0011, "RA_OF_ASC_NODE": 143.7715, "ARG_OF_PERICENTER": 269.0061, "MEAN_ANOMALY": 14.2021, "EPHEMERIS_TYPE": 0, "CLASSIFICATION_TYPE": "U", "NORAD_CAT_ID": 66965, "ELEMENT_SET_NO": 999, "REV_AT_EPOCH": 245, "BSTAR": -0.0041720134, "MEAN_MOTION_DOT": -0.01392205, "MEAN_MOTION_DDOT": 0.00055057089}, "tle": {"line1": "1 66965U 25288G   25350.58336806 -.01392205  55057-3 -41720-2 0  9996", "line2": "2 66965  43.0011 143.7715 0001618 269.0061  14.2021 15.91459647  2453"}}, "geometry": {"type": "Point", "coordinates": [62.444892339426865, -41.72789655072708]}}]}